HST                     
1 20580U 90037B   24100.64535772  .00005417  00000+0  25990-3 0  9994
2 20580  28.4685  83.9975 0002400   9.1066 350.9569 15.16646611666618
